{"fetched_at":"2026-07-17T06:37:56.553Z","source":"https://celestrak.org/NORAD/elements/gp.php?GROUP=spire&FORMAT=JSON","constellation":"spire","records":[{"OBJECT_NAME":"LEMUR-2-MYRA","OBJECT_ID":"2025-276EC","EPOCH":"2026-07-16T17:41:00.218976","CLASSIFICATION_TYPE":"U","MEAN_MOTION":15.0059963,"ECCENTRICITY":0.0018677,"INCLINATION":97.522,"RA_OF_ASC_NODE":267.6547,"ARG_OF_PERICENTER":49.658,"MEAN_ANOMALY":310.6272,"EPHEMERIS_TYPE":0,"NORAD_CAT_ID":66787,"ELEMENT_SET_NO":999,"REV_AT_EPOCH":3464,"BSTAR":0.00026311,"MEAN_MOTION_DOT":0.00003277,"MEAN_MOTION_DDOT":0},{"OBJECT_NAME":"LEMUR-2 FIKRETDENGIZ","OBJECT_ID":"2026-004A","EPOCH":"2026-07-16T13:54:21.837888","CLASSIFICATION_TYPE":"U","MEAN_MOTION":14.88522289,"ECCENTRICITY":0.0010108,"INCLINATION":97.8027,"RA_OF_ASC_NODE":195.6909,"ARG_OF_PERICENTER":51.8777,"MEAN_ANOMALY":308.335,"EPHEMERIS_TYPE":0,"NORAD_CAT_ID":67363,"ELEMENT_SET_NO":999,"REV_AT_EPOCH":2765,"BSTAR":0.00018387,"MEAN_MOTION_DOT":0.00001656,"MEAN_MOTION_DDOT":0},{"OBJECT_NAME":"TWILIGHT-1 OBJECT B","OBJECT_ID":"2026-004B","EPOCH":"2026-07-16T11:35:07.694016","CLASSIFICATION_TYPE":"U","MEAN_MOTION":14.87795828,"ECCENTRICITY":0.0009653,"INCLINATION":97.8076,"RA_OF_ASC_NODE":195.5957,"ARG_OF_PERICENTER":42.1314,"MEAN_ANOMALY":318.0643,"EPHEMERIS_TYPE":0,"NORAD_CAT_ID":67364,"ELEMENT_SET_NO":999,"REV_AT_EPOCH":2764,"BSTAR":0.00010103,"MEAN_MOTION_DOT":0.00000869,"MEAN_MOTION_DDOT":0},{"OBJECT_NAME":"LEMUR-2-MARIO-SOUSA","OBJECT_ID":"2026-004C","EPOCH":"2026-07-16T13:25:05.087424","CLASSIFICATION_TYPE":"U","MEAN_MOTION":14.88734181,"ECCENTRICITY":0.000975,"INCLINATION":97.8,"RA_OF_ASC_NODE":195.6658,"ARG_OF_PERICENTER":53.4528,"MEAN_ANOMALY":306.7585,"EPHEMERIS_TYPE":0,"NORAD_CAT_ID":67365,"ELEMENT_SET_NO":999,"REV_AT_EPOCH":2766,"BSTAR":0.00024272,"MEAN_MOTION_DOT":0.00002215,"MEAN_MOTION_DDOT":0},{"OBJECT_NAME":"LEMUR-2-SONNENBLUME","OBJECT_ID":"2026-004E","EPOCH":"2026-07-16T13:29:33.361152","CLASSIFICATION_TYPE":"U","MEAN_MOTION":14.88457039,"ECCENTRICITY":0.0009316,"INCLINATION":97.8001,"RA_OF_ASC_NODE":195.6409,"ARG_OF_PERICENTER":54.4556,"MEAN_ANOMALY":305.7529,"EPHEMERIS_TYPE":0,"NORAD_CAT_ID":67367,"ELEMENT_SET_NO":999,"REV_AT_EPOCH":2766,"BSTAR":0.0001498,"MEAN_MOTION_DOT":0.00001336,"MEAN_MOTION_DDOT":0},{"OBJECT_NAME":"LEMUR-2-WOBLER","OBJECT_ID":"2026-004F","EPOCH":"2026-07-16T11:37:01.220160","CLASSIFICATION_TYPE":"U","MEAN_MOTION":14.88703298,"ECCENTRICITY":0.0009401,"INCLINATION":97.805,"RA_OF_ASC_NODE":195.7164,"ARG_OF_PERICENTER":46.4263,"MEAN_ANOMALY":313.7733,"EPHEMERIS_TYPE":0,"NORAD_CAT_ID":67368,"ELEMENT_SET_NO":999,"REV_AT_EPOCH":2765,"BSTAR":0.00023039,"MEAN_MOTION_DOT":0.00002098,"MEAN_MOTION_DDOT":0},{"OBJECT_NAME":"LEMUR-2-GRAM-E-SUE","OBJECT_ID":"2026-004H","EPOCH":"2026-07-16T13:02:37.232736","CLASSIFICATION_TYPE":"U","MEAN_MOTION":14.88592787,"ECCENTRICITY":0.0008517,"INCLINATION":97.7987,"RA_OF_ASC_NODE":195.6391,"ARG_OF_PERICENTER":57.3306,"MEAN_ANOMALY":302.8731,"EPHEMERIS_TYPE":0,"NORAD_CAT_ID":67370,"ELEMENT_SET_NO":999,"REV_AT_EPOCH":2766,"BSTAR":0.0001358,"MEAN_MOTION_DOT":0.00001211,"MEAN_MOTION_DDOT":0},{"OBJECT_NAME":"LEMUR-2-KATIE","OBJECT_ID":"2026-004AA","EPOCH":"2026-07-16T13:35:10.176864","CLASSIFICATION_TYPE":"U","MEAN_MOTION":14.9025847,"ECCENTRICITY":0.0003383,"INCLINATION":97.8044,"RA_OF_ASC_NODE":196.2176,"ARG_OF_PERICENTER":30.9861,"MEAN_ANOMALY":329.1556,"EPHEMERIS_TYPE":0,"NORAD_CAT_ID":67387,"ELEMENT_SET_NO":999,"REV_AT_EPOCH":2768,"BSTAR":0.0002323,"MEAN_MOTION_DOT":0.00002199,"MEAN_MOTION_DDOT":0},{"OBJECT_NAME":"LEMUR-2-HCS-BAZUS","OBJECT_ID":"2026-004AB","EPOCH":"2026-07-16T13:32:47.318784","CLASSIFICATION_TYPE":"U","MEAN_MOTION":14.90266628,"ECCENTRICITY":0.000286,"INCLINATION":97.8038,"RA_OF_ASC_NODE":196.1937,"ARG_OF_PERICENTER":30.9753,"MEAN_ANOMALY":329.1633,"EPHEMERIS_TYPE":0,"NORAD_CAT_ID":67388,"ELEMENT_SET_NO":999,"REV_AT_EPOCH":2768,"BSTAR":0.00016075,"MEAN_MOTION_DOT":0.00001505,"MEAN_MOTION_DDOT":0}]}
